[{"OBJECT_NAME":"STARLINK-1876","OBJECT_ID":"2020-088AR","EPOCH":"2025-10-29T20:55:47.194464","MEAN_MOTION":15.06410448,"ECCENTRICITY":0.00016208,"INCLINATION":53.052,"RA_OF_ASC_NODE":158.8781,"ARG_OF_PERICENTER":86.7213,"MEAN_ANOMALY":273.3962,"EPHEMERIS_TYPE":0,"CLASSIFICATION_TYPE":"U","NORAD_CAT_ID":47161,"ELEMENT_SET_NO":999,"REV_AT_EPOCH":27226,"BSTAR":0.00043152515,"MEAN_MOTION_DOT":6.154e-5,"MEAN_MOTION_DDOT":0},{"OBJECT_NAME":"STARLINK-1888","OBJECT_ID":"2020-088BB","EPOCH":"2025-10-29T21:11:42.895968","MEAN_MOTION":15.06405142,"ECCENTRICITY":0.00014464,"INCLINATION":53.0533,"RA_OF_ASC_NODE":158.8348,"ARG_OF_PERICENTER":89.5923,"MEAN_ANOMALY":270.5231,"EPHEMERIS_TYPE":0,"CLASSIFICATION_TYPE":"U","NORAD_CAT_ID":47171,"ELEMENT_SET_NO":999,"REV_AT_EPOCH":27226,"BSTAR":0.0003183472,"MEAN_MOTION_DOT":4.464e-5,"MEAN_MOTION_DDOT":0},{"OBJECT_NAME":"STARLINK-1912","OBJECT_ID":"2020-088BJ","EPOCH":"2025-10-29T21:58:08.583168","MEAN_MOTION":15.06425075,"ECCENTRICITY":0.00014223,"INCLINATION":53.0523,"RA_OF_ASC_NODE":168.6854,"ARG_OF_PERICENTER":81.18,"MEAN_ANOMALY":278.935,"EPHEMERIS_TYPE":0,"CLASSIFICATION_TYPE":"U","NORAD_CAT_ID":47178,"ELEMENT_SET_NO":999,"REV_AT_EPOCH":27212,"BSTAR":0.00051407843,"MEAN_MOTION_DOT":7.389e-5,"MEAN_MOTION_DDOT":0},{"OBJECT_NAME":"STARLINK-1913","OBJECT_ID":"2020-088BK","EPOCH":"2025-10-29T23:16:26.378400","MEAN_MOTION":15.06423715,"ECCENTRICITY":0.00016473,"INCLINATION":53.0532,"RA_OF_ASC_NODE":178.4451,"ARG_OF_PERICENTER":89.2772,"MEAN_ANOMALY":270.8405,"EPHEMERIS_TYPE":0,"CLASSIFICATION_TYPE":"U","NORAD_CAT_ID":47179,"ELEMENT_SET_NO":999,"REV_AT_EPOCH":27199,"BSTAR":0.00058448409,"MEAN_MOTION_DOT":8.441e-5,"MEAN_MOTION_DDOT":0},{"OBJECT_NAME":"STARLINK-2017","OBJECT_ID":"2021-005C","EPOCH":"2025-10-30T03:25:52.727232","MEAN_MOTION":15.06400296,"ECCENTRICITY":0.00013907,"INCLINATION":53.0547,"RA_OF_ASC_NODE":247.6573,"ARG_OF_PERICENTER":90.5351,"MEAN_ANOMALY":269.5797,"EPHEMERIS_TYPE":0,"CLASSIFICATION_TYPE":"U","NORAD_CAT_ID":47351,"ELEMENT_SET_NO":999,"REV_AT_EPOCH":26392,"BSTAR":0.00020152739,"MEAN_MOTION_DOT":2.722e-5,"MEAN_MOTION_DDOT":0},{"OBJECT_NAME":"STARLINK-2034","OBJECT_ID":"2021-005D","EPOCH":"2025-10-30T05:29:18.806496","MEAN_MOTION":15.06398857,"ECCENTRICITY":0.00015603,"INCLINATION":53.0552,"RA_OF_ASC_NODE":287.2818,"ARG_OF_PERICENTER":114.455,"MEAN_ANOMALY":245.6602,"EPHEMERIS_TYPE":0,"CLASSIFICATION_TYPE":"U","NORAD_CAT_ID":47352,"ELEMENT_SET_NO":999,"REV_AT_EPOCH":26337,"BSTAR":2.912288e-5,"MEAN_MOTION_DOT":1.52e-6,"MEAN_MOTION_DDOT":0},{"OBJECT_NAME":"STARLINK-2045","OBJECT_ID":"2021-005E","EPOCH":"2025-10-30T02:49:24.505536","MEAN_MOTION":15.0639727,"ECCENTRICITY":0.00011332,"INCLINATION":53.053,"RA_OF_ASC_NODE":232.7767,"ARG_OF_PERICENTER":89.8867,"MEAN_ANOMALY":270.2252,"EPHEMERIS_TYPE":0,"CLASSIFICATION_TYPE":"U","NORAD_CAT_ID":47353,"ELEMENT_SET_NO":999,"REV_AT_EPOCH":26413,"BSTAR":-0.00017744246,"MEAN_MOTION_DOT":-2.923e-5,"MEAN_MOTION_DDOT":0},{"OBJECT_NAME":"STARLINK-2046","OBJECT_ID":"2021-005F","EPOCH":"2025-10-30T04:22:23.954880","MEAN_MOTION":15.06390857,"ECCENTRICITY":0.00012842,"INCLINATION":53.0541,"RA_OF_ASC_NODE":253.0322,"ARG_OF_PERICENTER":81.4355,"MEAN_ANOMALY":278.678,"EPHEMERIS_TYPE":0,"CLASSIFICATION_TYPE":"U","NORAD_CAT_ID":47354,"ELEMENT_SET_NO":999,"REV_AT_EPOCH":26385,"BSTAR":-1.5926651e-5,"MEAN_MOTION_DOT":-5.19e-6,"MEAN_MOTION_DDOT":0},{"OBJECT_NAME":"STARLINK-2047","OBJECT_ID":"2021-005G","EPOCH":"2025-10-30T02:03:38.652192","MEAN_MOTION":15.06397867,"ECCENTRICITY":0.00010059,"INCLINATION":53.0526,"RA_OF_ASC_NODE":237.9231,"ARG_OF_PERICENTER":81.0501,"MEAN_ANOMALY":279.0602,"EPHEMERIS_TYPE":0,"CLASSIFICATION_TYPE":"U","NORAD_CAT_ID":47355,"ELEMENT_SET_NO":999,"REV_AT_EPOCH":26405,"BSTAR":0.00038328875,"MEAN_MOTION_DOT":5.432e-5,"MEAN_MOTION_DDOT":0},{"OBJECT_NAME":"STARLINK-2049","OBJECT_ID":"2021-005H","EPOCH":"2025-10-30T04:45:32.187744","MEAN_MOTION":15.06390668,"ECCENTRICITY":0.00015876,"INCLINATION":53.0537,"RA_OF_ASC_NODE":257.4188,"ARG_OF_PERICENTER":87.5278,"MEAN_ANOMALY":272.5893,"EPHEMERIS_TYPE":0,"CLASSIFICATION_TYPE":"U","NORAD_CAT_ID":47356,"ELEMENT_SET_NO":999,"REV_AT_EPOCH":26379,"BSTAR":5.7158574e-5,"MEAN_MOTION_DOT":5.7e-6,"MEAN_MOTION_DDOT":0},{"OBJECT_NAME":"STARLINK-2050","OBJECT_ID":"2021-005J","EPOCH":"2025-10-30T05:55:55.723872","MEAN_MOTION":15.06396273,"ECCENTRICITY":0.00015816,"INCLINATION":53.057,"RA_OF_ASC_NODE":287.6241,"ARG_OF_PERICENTER":95.2816,"MEAN_ANOMALY":264.8353,"EPHEMERIS_TYPE":0,"CLASSIFICATION_TYPE":"U","NORAD_CAT_ID":47357,"ELEMENT_SET_NO":999,"REV_AT_EPOCH":26337,"BSTAR":-3.83062e-7,"MEAN_MOTION_DOT":-2.87e-6,"MEAN_MOTION_DDOT":0},{"OBJECT_NAME":"STARLINK-2055","OBJECT_ID":"2021-005K","EPOCH":"2025-10-30T03:24:33.361920","MEAN_MOTION":15.06391221,"ECCENTRICITY":0.00016448,"INCLINATION":53.0541,"RA_OF_ASC_NODE":257.6586,"ARG_OF_PERICENTER":98.16,"MEAN_ANOMALY":261.9576,"EPHEMERIS_TYPE":0,"CLASSIFICATION_TYPE":"U","NORAD_CAT_ID":47358,"ELEMENT_SET_NO":999,"REV_AT_EPOCH":26378,"BSTAR":7.6572989e-5,"MEAN_MOTION_DOT":8.59e-6,"MEAN_MOTION_DDOT":0},{"OBJECT_NAME":"STARLINK-2069","OBJECT_ID":"2021-005L","EPOCH":"2025-10-29T23:34:24.179520","MEAN_MOTION":15.6350705,"ECCENTRICITY":0.00055497,"INCLINATION":53.0156,"RA_OF_ASC_NODE":199.5125,"ARG_OF_PERICENTER":135.8097,"MEAN_ANOMALY":224.336,"EPHEMERIS_TYPE":0,"CLASSIFICATION_TYPE":"U","NORAD_CAT_ID":47359,"ELEMENT_SET_NO":999,"REV_AT_EPOCH":26458,"BSTAR":0.0017193359,"MEAN_MOTION_DOT":0.00165025,"MEAN_MOTION_DDOT":0},{"OBJECT_NAME":"STARLINK-2071","OBJECT_ID":"2021-005N","EPOCH":"2025-10-30T03:36:31.898016","MEAN_MOTION":15.0639238,"ECCENTRICITY":0.00017361,"INCLINATION":53.0547,"RA_OF_ASC_NODE":257.6314,"ARG_OF_PERICENTER":94.1004,"MEAN_ANOMALY":266.0183,"EPHEMERIS_TYPE":0,"CLASSIFICATION_TYPE":"U","NORAD_CAT_ID":47361,"ELEMENT_SET_NO":999,"REV_AT_EPOCH":26378,"BSTAR":2.304302e-5,"MEAN_MOTION_DOT":6.2e-7,"MEAN_MOTION_DDOT":0},{"OBJECT_NAME":"STARLINK-2076","OBJECT_ID":"2021-005P","EPOCH":"2025-10-30T04:41:32.643744","MEAN_MOTION":15.06390333,"ECCENTRICITY":0.00016528,"INCLINATION":53.0561,"RA_OF_ASC_NODE":287.4334,"ARG_OF_PERICENTER":97.9546,"MEAN_ANOMALY":262.1631,"EPHEMERIS_TYPE":0,"CLASSIFICATION_TYPE":"U","NORAD_CAT_ID":47362,"ELEMENT_SET_NO":999,"REV_AT_EPOCH":26337,"BSTAR":-4.3817427e-5,"MEAN_MOTION_DOT":-9.34e-6,"MEAN_MOTION_DDOT":0},{"OBJECT_NAME":"STARLINK-2081","OBJECT_ID":"2021-005T","EPOCH":"2025-10-30T05:24:00.288576","MEAN_MOTION":15.06394509,"ECCENTRICITY":0.00014763,"INCLINATION":53.0548,"RA_OF_ASC_NODE":287.2969,"ARG_OF_PERICENTER":99.9191,"MEAN_ANOMALY":260.1965,"EPHEMERIS_TYPE":0,"CLASSIFICATION_TYPE":"U","NORAD_CAT_ID":47366,"ELEMENT_SET_NO":999,"REV_AT_EPOCH":26337,"BSTAR":8.2928948e-5,"MEAN_MOTION_DOT":9.54e-6,"MEAN_MOTION_DDOT":0}]
