STARLINK-1876           
1 47161U 20088AR  25302.87207401  .00006154  00000+0  43153-3 0  9992
2 47161  53.0520 158.8781 0001620  86.7213 273.3962 15.06410448272264
STARLINK-1888           
1 47171U 20088BB  25302.88313537  .00004464  00000+0  31835-3 0  9998
2 47171  53.0533 158.8348 0001446  89.5923 270.5231 15.06405142272266
STARLINK-1912           
1 47178U 20088BJ  25302.91537712  .00007389  00000+0  51408-3 0  9999
2 47178  53.0523 168.6854 0001422  81.1800 278.9350 15.06425075272125
STARLINK-1913           
1 47179U 20088BK  25302.96974975  .00008441  00000+0  58448-3 0  9992
2 47179  53.0532 178.4451 0001647  89.2772 270.8405 15.06423715271999
STARLINK-2017           
1 47351U 21005C   25303.14297138  .00002722  00000+0  20153-3 0  9992
2 47351  53.0547 247.6573 0001390  90.5351 269.5797 15.06400296263926
STARLINK-2034           
1 47352U 21005D   25303.22868989  .00000152  00000+0  29123-4 0  9992
2 47352  53.0552 287.2818 0001560 114.4550 245.6602 15.06398857263379
STARLINK-2045           
1 47353U 21005E   25303.11764474 -.00002923  00000+0 -17744-3 0  9990
2 47353  53.0530 232.7767 0001133  89.8867 270.2252 15.06397270264134
STARLINK-2046           
1 47354U 21005F   25303.18222170 -.00000519  00000+0 -15927-4 0  9991
2 47354  53.0541 253.0322 0001284  81.4355 278.6780 15.06390857263857
STARLINK-2047           
1 47355U 21005G   25303.08586403  .00005432  00000+0  38329-3 0  9990
2 47355  53.0526 237.9231 0001005  81.0501 279.0602 15.06397867264050
STARLINK-2049           
1 47356U 21005H   25303.19828921  .00000570  00000+0  57159-4 0  9998
2 47356  53.0537 257.4188 0001587  87.5278 272.5893 15.06390668263790
STARLINK-2050           
1 47357U 21005J   25303.24717273 -.00000287  00000+0 -38306-6 0  9994
2 47357  53.0570 287.6241 0001581  95.2816 264.8353 15.06396273263378
STARLINK-2055           
1 47358U 21005K   25303.14205280  .00000859  00000+0  76573-4 0  9993
2 47358  53.0541 257.6586 0001644  98.1600 261.9576 15.06391221263787
STARLINK-2069           
1 47359U 21005L   25302.98222430  .00165025  00000+0  17193-2 0  9999
2 47359  53.0156 199.5125 0005549 135.8097 224.3360 15.63507050264585
STARLINK-2071           
1 47361U 21005N   25303.15036919  .00000062  00000+0  23043-4 0  9999
2 47361  53.0547 257.6314 0001736  94.1004 266.0183 15.06392380263789
STARLINK-2076           
1 47362U 21005P   25303.19551671 -.00000934  00000+0 -43817-4 0  9992
2 47362  53.0561 287.4334 0001652  97.9546 262.1631 15.06390333263374
STARLINK-2081           
1 47366U 21005T   25303.22500334  .00000954  00000+0  82929-4 0  9997
2 47366  53.0548 287.2969 0001476  99.9191 260.1965 15.06394509263374
